{
    "links": {
        "self": "http://www.neowsapp.com/rest/v1/neo/3856728?api_key=iIulBulltgU6a56xZRHN4H3l9WmuAYTsLGpBGhQ2"
    },
    "id": "3856728",
    "neo_reference_id": "3856728",
    "name": "(2019 ST4)",
    "designation": "2019 ST4",
    "nasa_jpl_url": "http://ssd.jpl.nasa.gov/sbdb.cgi?sstr=3856728",
    "absolute_magnitude_h": 23.4,
    "estimated_diameter": {
        "kilometers": {
            "estimated_diameter_min": 0.0555334912,
            "estimated_diameter_max": 0.1241766613
        },
        "meters": {
            "estimated_diameter_min": 55.5334911581,
            "estimated_diameter_max": 124.1766612574
        },
        "miles": {
            "estimated_diameter_min": 0.0345069009,
            "estimated_diameter_max": 0.0771597762
        },
        "feet": {
            "estimated_diameter_min": 182.1964991311,
            "estimated_diameter_max": 407.4037573197
        }
    },
    "is_potentially_hazardous_asteroid": false,
    "close_approach_data": [
        {
            "close_approach_date": "2014-10-13",
            "close_approach_date_full": "2014-Oct-13 04:33",
            "epoch_date_close_approach": 1413174780000,
            "relative_velocity": {
                "kilometers_per_second": "9.2240368143",
                "kilometers_per_hour": "33206.532531488",
                "miles_per_hour": "20633.2479499126"
            },
            "miss_distance": {
                "astronomical": "0.3309261759",
                "lunar": "128.7302824251",
                "kilometers": "49505851.041885333",
                "miles": "30761509.4072822754"
            },
            "orbiting_body": "Earth"
        },
        {
            "close_approach_date": "2017-03-21",
            "close_approach_date_full": "2017-Mar-21 15:34",
            "epoch_date_close_approach": 1490110440000,
            "relative_velocity": {
                "kilometers_per_second": "4.0084027887",
                "kilometers_per_hour": "14430.2500394225",
                "miles_per_hour": "8966.3961981067"
            },
            "miss_distance": {
                "astronomical": "0.9013173295",
                "lunar": "350.6124411755",
                "kilometers": "134835152.687288165",
                "miles": "83782678.825440077"
            },
            "orbiting_body": "Juptr"
        },
        {
            "close_approach_date": "2019-10-06",
            "close_approach_date_full": "2019-Oct-06 22:20",
            "epoch_date_close_approach": 1570400400000,
            "relative_velocity": {
                "kilometers_per_second": "7.6756240974",
                "kilometers_per_hour": "27632.2467506213",
                "miles_per_hour": "17169.6035434624"
            },
            "miss_distance": {
                "astronomical": "0.2276845212",
                "lunar": "88.5692787468",
                "kilometers": "34061119.403489844",
                "miles": "21164598.1818700872"
            },
            "orbiting_body": "Earth"
        },
        {
            "close_approach_date": "2041-04-05",
            "close_approach_date_full": "2041-Apr-05 11:56",
            "epoch_date_close_approach": 2248775760000,
            "relative_velocity": {
                "kilometers_per_second": "6.7601039527",
                "kilometers_per_hour": "24336.374229648",
                "miles_per_hour": "15121.6765317499"
            },
            "miss_distance": {
                "astronomical": "1.7364909537",
                "lunar": "675.4949809893",
                "kilometers": "259775347.947788619",
                "miles": "161416916.2128921822"
            },
            "orbiting_body": "Juptr"
        }
    ],
    "orbital_data": {
        "orbit_id": "4",
        "orbit_determination_date": "2019-10-31 07:10:44",
        "first_observation_date": "2019-09-24",
        "last_observation_date": "2019-10-28",
        "data_arc_in_days": 34,
        "observations_used": 23,
        "orbit_uncertainty": "6",
        "minimum_orbit_intersection": ".204499",
        "jupiter_tisserand_invariant": "2.998",
        "epoch_osculation": "2459000.5",
        "eccentricity": ".5821655526454226",
        "semi_major_axis": "2.87633564937617",
        "inclination": "10.39195681648526",
        "ascending_node_longitude": "12.40924422221458",
        "orbital_period": "1781.79515146281",
        "perihelion_distance": "1.201832116463361",
        "perihelion_argument": "6.454209862774706",
        "aphelion_distance": "4.550839182288978",
        "perihelion_time": "2458763.765022328037",
        "mean_anomaly": "47.83074636382271",
        "mean_motion": ".2020434277781309",
        "equinox": "J2000",
        "orbit_class": {
            "orbit_class_type": "AMO",
            "orbit_class_description": "Near-Earth asteroid orbits similar to that of 1221 Amor",
            "orbit_class_range": "1.017 AU < q (perihelion) < 1.3 AU"
        }
    },
    "is_sentry_object": false
}